start=new Date('2021-09-06T00:00:00.000Z').valueOf();
sats=[{"REV_AT_EPOCH":"9204","OBJECT_NAME":"STARLINK-1091","ELEMENT_SET_NO":"999","SEMIMAJOR_AXIS":"6925.335","SITE":"AFETR","INCLINATION":"53.0538","OBJECT_TYPE":"PAYLOAD","MEAN_MOTION_DDOT":"0.0000000000000","CENTER_NAME":"EARTH","MEAN_ELEMENT_THEORY":"SGP4","PERIAPSIS":"545.899","BSTAR":"-0.00000487740000","REF_FRAME":"TEME","LAUNCH_DATE":"2020-01-07","RA_OF_ASC_NODE":"155.3997","MEAN_MOTION":"15.06404526","ECCENTRICITY":"0.00018780","CLASSIFICATION_TYPE":"U","ARG_OF_PERICENTER":"71.2795","FILE":"3109348","COUNTRY_CODE":"US","APOAPSIS":"548.500","OBJECT_ID":"2020-001AC","MEAN_ANOMALY":"288.8398","MEAN_MOTION_DOT":"-0.00000354","TIME_SYSTEM":"UTC","TLE_LINE1":"1 44940U 20001AC  21248.78008613 -.00000354  00000-0 -48774-5 0  9993","TLE_LINE2":"2 44940  53.0538 155.3997 0001878  71.2795 288.8398 15.06404526 92045","NORAD_CAT_ID":"44940","GP_ID":"184163042","DECAY_DATE":null,"PERIOD":"95.592","EPHEMERIS_TYPE":"0","RCS_SIZE":"LARGE","EPOCH":"2021-09-05T18:43:19.441632"},{"EPHEMERIS_TYPE":"0","PERIOD":"95.592","RCS_SIZE":"LARGE","EPOCH":"2021-09-05T11:17:28.729824","TLE_LINE1":"1 44941U 20001AD  21248.47047141 -.00000165  00000-0  78634-5 0  9996","DECAY_DATE":null,"TLE_LINE2":"2 44941  53.0542 156.7903 0002118  62.2853 297.8350 15.06400649 92002","NORAD_CAT_ID":"44941","GP_ID":"184139346","MEAN_ANOMALY":"297.8350","OBJECT_ID":"2020-001AD","MEAN_MOTION_DOT":"-0.00000165","TIME_SYSTEM":"UTC","ARG_OF_PERICENTER":"62.2853","FILE":"3109252","ECCENTRICITY":"0.00021180","CLASSIFICATION_TYPE":"U","APOAPSIS":"548.678","COUNTRY_CODE":"US","LAUNCH_DATE":"2020-01-07","REF_FRAME":"TEME","MEAN_MOTION":"15.06400649","RA_OF_ASC_NODE":"156.7903","MEAN_ELEMENT_THEORY":"SGP4","BSTAR":"0.00000786340000","PERIAPSIS":"545.745","OBJECT_TYPE":"PAYLOAD","MEAN_MOTION_DDOT":"0.0000000000000","INCLINATION":"53.0542","CENTER_NAME":"EARTH","SEMIMAJOR_AXIS":"6925.347","ELEMENT_SET_NO":"999","REV_AT_EPOCH":"9200","OBJECT_NAME":"STARLINK-1094","SITE":"AFETR"},{"ARG_OF_PERICENTER":"77.7835","FILE":"3109252","ECCENTRICITY":"0.00016950","CLASSIFICATION_TYPE":"U","APOAPSIS":"548.421","COUNTRY_CODE":"US","MEAN_ANOMALY":"282.3344","OBJECT_ID":"2020-001AE","MEAN_MOTION_DOT":"-0.00000474","TIME_SYSTEM":"UTC","TLE_LINE1":"1 44942U 20001AE  21248.45573058 -.00000474  00000-0 -12956-4 0  9994","DECAY_DATE":null,"TLE_LINE2":"2 44942  53.0555 156.8619 0001695  77.7835 282.3344 15.06389162 92000","NORAD_CAT_ID":"44942","GP_ID":"184137603","EPHEMERIS_TYPE":"0","PERIOD":"95.593","RCS_SIZE":"LARGE","EPOCH":"2021-09-05T10:56:15.122112","ELEMENT_SET_NO":"999","SEMIMAJOR_AXIS":"6925.382","REV_AT_EPOCH":"9200","OBJECT_NAME":"STARLINK-1096","SITE":"AFETR","OBJECT_TYPE":"PAYLOAD","MEAN_MOTION_DDOT":"0.0000000000000","INCLINATION":"53.0555","CENTER_NAME":"EARTH","MEAN_ELEMENT_THEORY":"SGP4","BSTAR":"-0.00001295600000","PERIAPSIS":"546.073","LAUNCH_DATE":"2020-01-07","REF_FRAME":"TEME","MEAN_MOTION":"15.06389162","RA_OF_ASC_NODE":"156.8619"},{"MEAN_ANOMALY":"286.1258","OBJECT_ID":"2020-001AF","TIME_SYSTEM":"UTC","MEAN_MOTION_DOT":"0.00001233","FILE":"3109348","ARG_OF_PERICENTER":"73.9954","CLASSIFICATION_TYPE":"U","ECCENTRICITY":"0.00020250","APOAPSIS":"548.613","COUNTRY_CODE":"US","EPHEMERIS_TYPE":"0","PERIOD":"95.592","EPOCH":"2021-09-05T18:22:05.549664","RCS_SIZE":"LARGE","TLE_LINE1":"1 44943U 20001AF  21248.76534201  .00001233  00000-0  10164-3 0  9996","DECAY_DATE":null,"TLE_LINE2":"2 44943  53.0558 155.4742 0002025  73.9954 286.1258 15.06401099 92048","GP_ID":"184164291","NORAD_CAT_ID":"44943","MEAN_MOTION_DDOT":"0.0000000000000","OBJECT_TYPE":"PAYLOAD","INCLINATION":"53.0558","CENTER_NAME":"EARTH","SEMIMAJOR_AXIS":"6925.345","ELEMENT_SET_NO":"999","OBJECT_NAME":"STARLINK-1100","REV_AT_EPOCH":"9204","SITE":"AFETR","LAUNCH_DATE":"2020-01-07","REF_FRAME":"TEME","RA_OF_ASC_NODE":"155.4742","MEAN_MOTION":"15.06401099","MEAN_ELEMENT_THEORY":"SGP4","BSTAR":"0.00010164000000","PERIAPSIS":"545.808"},{"REV_AT_EPOCH":"9204","OBJECT_NAME":"STARLINK-1108","SEMIMAJOR_AXIS":"6925.355","ELEMENT_SET_NO":"999","SITE":"AFETR","INCLINATION":"53.0538","OBJECT_TYPE":"PAYLOAD","MEAN_MOTION_DDOT":"0.0000000000000","CENTER_NAME":"EARTH","MEAN_ELEMENT_THEORY":"SGP4","PERIAPSIS":"545.787","BSTAR":"0.00004689900000","REF_FRAME":"TEME","LAUNCH_DATE":"2020-01-07","MEAN_MOTION":"15.06397992","RA_OF_ASC_NODE":"155.5501","ECCENTRICITY":"0.00020690","CLASSIFICATION_TYPE":"U","ARG_OF_PERICENTER":"68.9817","FILE":"3109348","COUNTRY_CODE":"US","APOAPSIS":"548.653","OBJECT_ID":"2020-001AG","MEAN_ANOMALY":"291.1394","MEAN_MOTION_DOT":"0.00000417","TIME_SYSTEM":"UTC","TLE_LINE1":"1 44944U 20001AG  21248.74691157  .00000417  00000-0  46899-4 0  9997","NORAD_CAT_ID":"44944","TLE_LINE2":"2 44944  53.0538 155.5501 0002069  68.9817 291.1394 15.06397992 92044","GP_ID":"184163543","DECAY_DATE":null,"PERIOD":"95.592","EPHEMERIS_TYPE":"0","RCS_SIZE":"LARGE","EPOCH":"2021-09-05T17:55:33.159648"},{"RA_OF_ASC_NODE":"155.7157","MEAN_MOTION":"15.06409013","LAUNCH_DATE":"2020-01-07","REF_FRAME":"TEME","BSTAR":"0.00012265000000","PERIAPSIS":"545.896","MEAN_ELEMENT_THEORY":"SGP4","CENTER_NAME":"EARTH","MEAN_MOTION_DDOT":"0.0000000000000","OBJECT_TYPE":"PAYLOAD","INCLINATION":"53.0535","SITE":"AFETR","ELEMENT_SET_NO":"999","SEMIMAJOR_AXIS":"6925.321","OBJECT_NAME":"STARLINK-1109","REV_AT_EPOCH":"9203","EPOCH":"2021-09-05T17:02:30.204384","RCS_SIZE":"LARGE","EPHEMERIS_TYPE":"0","PERIOD":"95.592","DECAY_DATE":null,"TLE_LINE2":"2 44945  53.0535 155.7157 0001863  64.6324 295.4857 15.06409013 92036","NORAD_CAT_ID":"44945","GP_ID":"184163793","TLE_LINE1":"1 44945U 20001AH  21248.71007181  .00001546  00000-0  12265-3 0  9996","TIME_SYSTEM":"UTC","MEAN_MOTION_DOT":"0.00001546","MEAN_ANOMALY":"295.4857","OBJECT_ID":"2020-001AH","APOAPSIS":"548.476","COUNTRY_CODE":"US","FILE":"3109348","ARG_OF_PERICENTER":"64.6324","CLASSIFICATION_TYPE":"U","ECCENTRICITY":"0.00018630"},{"MEAN_ELEMENT_THEORY":"SGP4","BSTAR":"0.00025724000000","PERIAPSIS":"541.098","LAUNCH_DATE":"2020-01-07","REF_FRAME":"TEME","RA_OF_ASC_NODE":"153.3310","MEAN_MOTION":"15.07788924","ELEMENT_SET_NO":"999","SEMIMAJOR_AXIS":"6921.095","OBJECT_NAME":"STARLINK-1110","REV_AT_EPOCH":"9204","SITE":"AFETR","MEAN_MOTION_DDOT":"0.0000000000000","OBJECT_TYPE":"PAYLOAD","INCLINATION":"53.0036","CENTER_NAME":"EARTH","TLE_LINE1":"1 44946U 20001AJ  21248.57281782  .00003695  00000-0  25724-3 0  9993","DECAY_DATE":null,"TLE_LINE2":"2 44946  53.0036 153.3310 0002690  58.8372 301.2880 15.07788924 92040","GP_ID":"184138104","NORAD_CAT_ID":"44946","EPHEMERIS_TYPE":"0","PERIOD":"95.504","EPOCH":"2021-09-05T13:44:51.459648","RCS_SIZE":"LARGE","FILE":"3109252","ARG_OF_PERICENTER":"58.8372","CLASSIFICATION_TYPE":"U","ECCENTRICITY":"0.00026900","APOAPSIS":"544.822","COUNTRY_CODE":"US","MEAN_ANOMALY":"301.2880","OBJECT_ID":"2020-001AJ","TIME_SYSTEM":"UTC","MEAN_MOTION_DOT":"0.00003695"},{"REF_FRAME":"TEME","LAUNCH_DATE":"2020-01-07","RA_OF_ASC_NODE":"156.8056","MEAN_MOTION":"15.06400900","MEAN_ELEMENT_THEORY":"SGP4","PERIAPSIS":"545.878","BSTAR":"-0.00000169410000","INCLINATION":"53.0535","MEAN_MOTION_DDOT":"0.0000000000000","OBJECT_TYPE":"PAYLOAD","CENTER_NAME":"EARTH","OBJECT_NAME":"STARLINK-1116","REV_AT_EPOCH":"9200","SEMIMAJOR_AXIS":"6925.346","ELEMENT_SET_NO":"999","SITE":"AFETR","PERIOD":"95.592","EPHEMERIS_TYPE":"0","EPOCH":"2021-09-05T11:12:10.214496","RCS_SIZE":"LARGE","TLE_LINE1":"1 44947U 20001AK  21248.46678489 -.00000307  00000-0 -16941-5 0  9998","GP_ID":"184138354","TLE_LINE2":"2 44947  53.0535 156.8056 0001924  69.6894 290.4302 15.06400900 92006","NORAD_CAT_ID":"44947","DECAY_DATE":null,"OBJECT_ID":"2020-001AK","MEAN_ANOMALY":"290.4302","TIME_SYSTEM":"UTC","MEAN_MOTION_DOT":"-0.00000307","CLASSIFICATION_TYPE":"U","ECCENTRICITY":"0.00019240","FILE":"3109252","ARG_OF_PERICENTER":"69.6894","COUNTRY_CODE":"US","APOAPSIS":"548.543"},{"OBJECT_NAME":"STARLINK-1122","REV_AT_EPOCH":"9196","ELEMENT_SET_NO":"999","SEMIMAJOR_AXIS":"6925.346","SITE":"AFETR","INCLINATION":"53.0551","MEAN_MOTION_DDOT":"0.0000000000000","OBJECT_TYPE":"PAYLOAD","CENTER_NAME":"EARTH","MEAN_ELEMENT_THEORY":"SGP4","PERIAPSIS":"545.938","BSTAR":"0.00011572000000","REF_FRAME":"TEME","LAUNCH_DATE":"2020-01-07","RA_OF_ASC_NODE":"157.8827","MEAN_MOTION":"15.06400918","CLASSIFICATION_TYPE":"U","ECCENTRICITY":"0.00018380","FILE":"3109252","ARG_OF_PERICENTER":"64.6214","COUNTRY_CODE":"US","APOAPSIS":"548.484","OBJECT_ID":"2020-001AM","MEAN_ANOMALY":"295.4966","TIME_SYSTEM":"UTC","MEAN_MOTION_DOT":"0.00001442","TLE_LINE1":"1 44949U 20001AM  21248.22719427  .00001442  00000-0  11572-3 0  9994","TLE_LINE2":"2 44949  53.0551 157.8827 0001838  64.6214 295.4966 15.06400918 91962","NORAD_CAT_ID":"44949","GP_ID":"184138605","DECAY_DATE":null,"PERIOD":"95.592","EPHEMERIS_TYPE":"0","EPOCH":"2021-09-05T05:27:09.584928","RCS_SIZE":"LARGE"},{"SITE":"AFETR","SEMIMAJOR_AXIS":"6925.372","ELEMENT_SET_NO":"999","REV_AT_EPOCH":"9204","OBJECT_NAME":"STARLINK-1125","CENTER_NAME":"EARTH","OBJECT_TYPE":"PAYLOAD","MEAN_MOTION_DDOT":"0.0000000000000","INCLINATION":"53.0555","BSTAR":"-0.00002466300000","PERIAPSIS":"545.967","MEAN_ELEMENT_THEORY":"SGP4","RA_OF_ASC_NODE":"155.4381","MEAN_MOTION":"15.06392233","LAUNCH_DATE":"2020-01-07","REF_FRAME":"TEME","APOAPSIS":"548.507","COUNTRY_CODE":"US","ARG_OF_PERICENTER":"68.6765","FILE":"3109348","ECCENTRICITY":"0.00018340","CLASSIFICATION_TYPE":"U","MEAN_MOTION_DOT":"-0.00000649","TIME_SYSTEM":"UTC","MEAN_ANOMALY":"291.4420","OBJECT_ID":"2020-001AN","DECAY_DATE":null,"TLE_LINE2":"2 44950  53.0555 155.4381 0001834  68.6765 291.4420 15.06392233 92049","NORAD_CAT_ID":"44950","GP_ID":"184163293","TLE_LINE1":"1 44950U 20001AN  21248.77272139 -.00000649  00000-0 -24663-4 0  9996","RCS_SIZE":"LARGE","EPOCH":"2021-09-05T18:32:43.128096","EPHEMERIS_TYPE":"0","PERIOD":"95.593"}];
